0 IRIDIUM 33 DEB
1 38474U 97051AAB 13281.81586281  .00000806  00000-0  26150-3 0  1423
2 38474 086.3484 118.6257 0032802 010.5637 349.6268 14.37461809222960
0 IRIDIUM 33 DEB
1 38474U 97051AAB 13284.25223669  .00000874  00000-0  28396-3 0  1432
2 38474 086.3485 117.5898 0032230 004.7427 355.4092 14.37467078223311
0 IRIDIUM 33 DEB
1 38474U 97051AAB 13286.27093972  .00000931  00000-0  30321-3 0  1444
2 38474 086.3471 116.7291 0031253 358.2250 001.9022 14.37471859223609
0 IRIDIUM 33 DEB
1 38474U 97051AAB 13288.28962999  .00001019  00000-0  33228-3 0  1459
2 38474 086.3476 115.8676 0030822 351.1033 008.9622 14.37477250223898
0 IRIDIUM 33 DEB
1 38474U 97051AAB 13290.79559039  .00001040  00000-0  33944-3 0  1465
2 38474 086.3476 114.8004 0030699 342.8777 017.1405 14.37482666224255
0 IRIDIUM 33 DEB
1 38474U 97051AAB 13292.81427372  .00001056  00000-0  34484-3 0  1472
2 38474 086.3475 113.9405 0030698 336.2492 023.7286 14.37487069224543
